[
    {
        "Altitude(m)": 715644.0326821341,
        "Argument of Periapsis(deg)": 0.0011390121186627068,
        "Eccentricity": 0.0,
        "Inclination(deg)": 45.0,
        "Latitude(deg)": -39.750262757681725,
        "Longitude(deg)": 124.13401873910175,
        "Mean Anomaly(deg)": -64.30117833525186,
        "RAAN(deg)": 279.99892480585413,
        "Satellite Name": "Constellation 1 1250",
        "Satellite Number": 1250,
        "Semi-Major Axis(m)": 7083131.272910544,
        "Time(s)": 19
    },
    {
        "Altitude(m)": 715634.0335919367,
        "Argument of Periapsis(deg)": 0.0011989601249081123,
        "Eccentricity": 0.0,
        "Inclination(deg)": 45.0,
        "Latitude(deg)": -39.72611602751373,
        "Longitude(deg)": 124.20200820800022,
        "Mean Anomaly(deg)": -64.24047719500201,
        "RAAN(deg)": 279.99886821668855,
        "Satellite Name": "Constellation 1 1250",
        "Satellite Number": 1250,
        "Semi-Major Axis(m)": 7083131.272910544,
        "Time(s)": 20
    },
    {
        "Altitude(m)": 715624.0163406049,
        "Argument of Periapsis(deg)": 0.001258908131153518,
        "Eccentricity": 0.0,
        "Inclination(deg)": 45.0,
        "Latitude(deg)": -39.701924434970316,
        "Longitude(deg)": 124.26994748377925,
        "Mean Anomaly(deg)": -64.17977605475217,
        "RAAN(deg)": 279.998811627523,
        "Satellite Name": "Constellation 1 1250",
        "Satellite Number": 1250,
        "Semi-Major Axis(m)": 7083131.272910544,
        "Time(s)": 21
    },
    {
        "Altitude(m)": 715613.9809646403,
        "Argument of Periapsis(deg)": 0.0013188561373989236,
        "Eccentricity": 0.0,
        "Inclination(deg)": 45.0,
        "Latitude(deg)": -39.67768804874309,
        "Longitude(deg)": 124.3378363836795,
        "Mean Anomaly(deg)": -64.11907491450222,
        "RAAN(deg)": 279.99875503835744,
        "Satellite Name": "Constellation 1 1250",
        "Satellite Number": 1250,
        "Semi-Major Axis(m)": 7083131.272910544,
        "Time(s)": 22
    },
    {
        "Altitude(m)": 715603.9275006078,
        "Argument of Periapsis(deg)": 0.0013788041436443293,
        "Eccentricity": 0.0,
        "Inclination(deg)": 45.0,
        "Latitude(deg)": -39.65340693752416,
        "Longitude(deg)": 124.40567522966376,
        "Mean Anomaly(deg)": -64.05837377425226,
        "RAAN(deg)": 279.9986984491919,
        "Satellite Name": "Constellation 1 1250",
        "Satellite Number": 1250,
        "Semi-Major Axis(m)": 7083131.272910544,
        "Time(s)": 23
    },
    {
        "Altitude(m)": 715593.8559851333,
        "Argument of Periapsis(deg)": 0.001438752149889735,
        "Eccentricity": 0.0,
        "Inclination(deg)": 45.0,
        "Latitude(deg)": -39.62908117000467,
        "Longitude(deg)": 124.47346383983432,
        "Mean Anomaly(deg)": -63.99767263400248,
        "RAAN(deg)": 279.9986418600263,
        "Satellite Name": "Constellation 1 1250",
        "Satellite Number": 1250,
        "Semi-Major Axis(m)": 7083131.272910544,
        "Time(s)": 24
    },
    {
        "Altitude(m)": 715583.7664549138,
        "Argument of Periapsis(deg)": 0.0014987001561351404,
        "Eccentricity": 0.0,
        "Inclination(deg)": 45.0,
        "Latitude(deg)": -39.604710814874494,
        "Longitude(deg)": 124.54120220082038,
        "Mean Anomaly(deg)": -63.936971493752516,
        "RAAN(deg)": 279.9985852708607,
        "Satellite Name": "Constellation 1 1250",
        "Satellite Number": 1250,
        "Semi-Major Axis(m)": 7083131.272910544,
        "Time(s)": 25
    },
    {
        "Altitude(m)": 715573.658946701,
        "Argument of Periapsis(deg)": 0.001558648162380546,
        "Eccentricity": 0.0,
        "Inclination(deg)": 45.0,
        "Latitude(deg)": -39.58029594082197,
        "Longitude(deg)": 124.6088902996781,
        "Mean Anomaly(deg)": -63.876270353502576,
        "RAAN(deg)": 279.9985286816952,
        "Satellite Name": "Constellation 1 1250",
        "Satellite Number": 1250,
        "Semi-Major Axis(m)": 7083131.272910544,
        "Time(s)": 26
    },
    {
        "Altitude(m)": 715563.5334973206,
        "Argument of Periapsis(deg)": 0.0016185961686259519,
        "Eccentricity": 0.0,
        "Inclination(deg)": 45.0,
        "Latitude(deg)": -39.55583661653303,
        "Longitude(deg)": 124.67652812389008,
        "Mean Anomaly(deg)": -63.815569213252616,
        "RAAN(deg)": 279.9984720925296,
        "Satellite Name": "Constellation 1 1250",
        "Satellite Number": 1250,
        "Semi-Major Axis(m)": 7083131.272910544,
        "Time(s)": 27
    },
    {
        "Altitude(m)": 715553.3901436456,
        "Argument of Periapsis(deg)": 0.0016785441748713573,
        "Eccentricity": 0.0,
        "Inclination(deg)": 45.0,
        "Latitude(deg)": -39.5313329106908,
        "Longitude(deg)": 124.74411566136384,
        "Mean Anomaly(deg)": -63.75486807300286,
        "RAAN(deg)": 279.9984155033641,
        "Satellite Name": "Constellation 1 1250",
        "Satellite Number": 1250,
        "Semi-Major Axis(m)": 7083131.272910544,
        "Time(s)": 28
    },
    {
        "Altitude(m)": 715543.2289226226,
        "Argument of Periapsis(deg)": 0.001738492181116763,
        "Eccentricity": 0.0,
        "Inclination(deg)": 45.0,
        "Latitude(deg)": -39.506784891974625,
        "Longitude(deg)": 124.81165290043107,
        "Mean Anomaly(deg)": -63.694166932752914,
        "RAAN(deg)": 279.9983589141985,
        "Satellite Name": "Constellation 1 1250",
        "Satellite Number": 1250,
        "Semi-Major Axis(m)": 7083131.272910544,
        "Time(s)": 29
    },
    {
        "Altitude(m)": 715533.0498712611,
        "Argument of Periapsis(deg)": 0.0017984401873621684,
        "Eccentricity": 0.0,
        "Inclination(deg)": 45.0,
        "Latitude(deg)": -39.48219262905996,
        "Longitude(deg)": 124.87913966174823,
        "Mean Anomaly(deg)": -63.633465792503,
        "RAAN(deg)": 279.99830232503285,
        "Satellite Name": "Constellation 1 1250",
        "Satellite Number": 1250,
        "Semi-Major Axis(m)": 7083131.272910544,
        "Time(s)": 30
    },
    {
        "Altitude(m)": 715522.8530266242,
        "Argument of Periapsis(deg)": 0.0018583881936075745,
        "Eccentricity": 0.0,
        "Inclination(deg)": 45.0,
        "Latitude(deg)": -39.457556190617986,
        "Longitude(deg)": 124.94657627068347,
        "Mean Anomaly(deg)": -63.57276465225317,
        "RAAN(deg)": 279.99824573586733,
        "Satellite Name": "Constellation 1 1250",
        "Satellite Number": 1250,
        "Semi-Major Axis(m)": 7083131.272910544,
        "Time(s)": 31
    },
    {
        "Altitude(m)": 715512.6384258483,
        "Argument of Periapsis(deg)": 0.0019183361998529795,
        "Eccentricity": 0.0,
        "Inclination(deg)": 45.0,
        "Latitude(deg)": -39.432875645314134,
        "Longitude(deg)": 125.0139625487341,
        "Mean Anomaly(deg)": -63.51206351200321,
        "RAAN(deg)": 279.99818914670175,
        "Satellite Name": "Constellation 1 1250",
        "Satellite Number": 1250,
        "Semi-Major Axis(m)": 7083131.272910544,
        "Time(s)": 32
    },
    {
        "Altitude(m)": 715502.4061061202,
        "Argument of Periapsis(deg)": 0.0019782842060983856,
        "Eccentricity": 0.0,
        "Inclination(deg)": 45.0,
        "Latitude(deg)": -39.40815106180834,
        "Longitude(deg)": 125.08129848591207,
        "Mean Anomaly(deg)": -63.45136237175327,
        "RAAN(deg)": 279.9981325575362,
        "Satellite Name": "Constellation 1 1250",
        "Satellite Number": 1250,
        "Semi-Major Axis(m)": 7083131.272910544,
        "Time(s)": 33
    },
    {
        "Altitude(m)": 715492.1561047005,
        "Argument of Periapsis(deg)": 0.0020382322123437906,
        "Eccentricity": 0.0,
        "Inclination(deg)": 45.0,
        "Latitude(deg)": -39.383382508754266,
        "Longitude(deg)": 125.14858407264613,
        "Mean Anomaly(deg)": -63.3906612315034,
        "RAAN(deg)": 279.99807596837064,
        "Satellite Name": "Constellation 1 1250",
        "Satellite Number": 1250,
        "Semi-Major Axis(m)": 7083131.272910544,
        "Time(s)": 34
    },
    {
        "Altitude(m)": 715481.8884589055,
        "Argument of Periapsis(deg)": 0.002098180218589197,
        "Eccentricity": 0.0,
        "Inclination(deg)": 45.0,
        "Latitude(deg)": -39.35857005479855,
        "Longitude(deg)": 125.21581929978059,
        "Mean Anomaly(deg)": -63.329960091253525,
        "RAAN(deg)": 279.998019379205,
        "Satellite Name": "Constellation 1 1250",
        "Satellite Number": 1250,
        "Semi-Major Axis(m)": 7083131.272910544,
        "Time(s)": 35
    },
    {
        "Altitude(m)": 715471.6032061109,
        "Argument of Periapsis(deg)": 0.002158128224834602,
        "Eccentricity": 0.0,
        "Inclination(deg)": 45.0,
        "Latitude(deg)": -39.33371376858047,
        "Longitude(deg)": 125.28300415857379,
        "Mean Anomaly(deg)": -63.26925895100356,
        "RAAN(deg)": 279.9979627900395,
        "Satellite Name": "Constellation 1 1250",
        "Satellite Number": 1250,
        "Semi-Major Axis(m)": 7083131.272910544,
        "Time(s)": 36
    },
    {
        "Altitude(m)": 715461.3003837584,
        "Argument of Periapsis(deg)": 0.002218076231080008,
        "Eccentricity": 0.0,
        "Inclination(deg)": 45.0,
        "Latitude(deg)": -39.30881371873129,
        "Longitude(deg)": 125.35013847259951,
        "Mean Anomaly(deg)": -63.208557810753696,
        "RAAN(deg)": 279.9979062008739,
        "Satellite Name": "Constellation 1 1250",
        "Satellite Number": 1250,
        "Semi-Major Axis(m)": 7083131.272910544,
        "Time(s)": 37
    }
]